OBJECT_NAME,OBJECT_ID,EPOCH,MEAN_MOTION,ECCENTRICITY,INCLINATION,RA_OF_ASC_NODE,ARG_OF_PERICENTER,MEAN_ANOMALY,EPHEMERIS_TYPE,CLASSIFICATION_TYPE,NORAD_CAT_ID,ELEMENT_SET_NO,REV_AT_EPOCH,BSTAR,MEAN_MOTION_DOT,MEAN_MOTION_DDOT
SAUDISAT 1C (SO-50),2002-058C,2026-07-17T03:53:24.264096,14.83100454,.00744684,64.5519,36.2392,256.9149,102.3638,0,U,27607,999,26890,.60035566E-4,.356E-5,0
SAUDISAT 2,2004-025F,2026-07-17T06:03:02.244384,14.56698857,.00241829,98.5522,199.0128,201.7292,158.2882,0,U,28371,999,17012,.31015308E-4,.89E-6,0
SAUDISAT 3,2007-012B,2026-07-17T07:34:19.623360,14.71440920,.00157052,98.1468,148.7385,128.4198,231.8421,0,U,31118,999,3217,.23903199E-4,.97E-6,0
PISAT,2016-059B,2026-07-16T23:28:31.906848,14.69031411,.00304961,97.8192,197.1528,109.3961,251.0545,0,U,41784,999,52411,.80497908E-4,.428E-5,0
FLYING LAPTOP,2017-042G,2026-07-17T07:30:31.440960,15.01320786,.00195971,97.4816,352.7137,25.7451,334.4745,0,U,42831,999,49097,.14415378E-3,.1804E-4,0
SALSAT,2020-068K,2026-07-16T23:14:24.421344,15.30186484,.00093844,97.8858,202.8562,186.4299,173.6821,0,U,46495,999,31991,.1366282E-3,.3909E-4,0
